{
  "type": "FeatureCollection",
  "features": [
    {
      "type": "Feature",
      "properties": {
        "norad_id": 66801,
        "name": "STARLINK-36080",
        "group": "last-30-days",
        "lat": 37.299538982854855,
        "lon": -44.589157595388805,
        "alt_km": 406.7951381361545,
        "timestamp": "2025-12-22T23:36:19.410971+00:00",
        "meta_object_name": "STARLINK-36080",
        "meta_object_id": "2025-278L",
        "meta_epoch": "2025-12-22T14:00:01.999872",
        "meta_mean_motion": 15.53189792,
        "meta_eccentricity": 0.00015792,
        "meta_inclination": 42.999,
        "meta_ra_of_asc_node": 192.5967,
        "meta_arg_of_pericenter": 259.9276,
        "meta_mean_anomaly": 138.0031,
        "meta_ephemeris_type": 0,
        "meta_classification_type": "U",
        "meta_norad_cat_id": 66801,
        "meta_element_set_no": 999,
        "meta_rev_at_epoch": 454,
        "meta_bstar": -0.030070444,
        "meta_mean_motion_dot": -0.01729132,
        "meta_mean_motion_ddot": 0,
        "tle_line1": "1 66801U 25278L   25356.58335648 -.01729132  00000+0 -30070-1 0  9995",
        "tle_line2": "2 66801  42.9990 192.5967 0001579 259.9276 138.0031 15.53189792  4546"
      },
      "geometry": {
        "type": "Point",
        "coordinates": [
          -44.589157595388805,
          37.299538982854855
        ]
      }
    },
    {
      "type": "Feature",
      "properties": {
        "norad_id": 66802,
        "name": "STARLINK-35604",
        "group": "last-30-days",
        "lat": 41.00598473542435,
        "lon": -58.64396911756525,
        "alt_km": 406.3513873077809,
        "timestamp": "2025-12-22T23:36:19.410980+00:00",
        "meta_object_name": "STARLINK-35604",
        "meta_object_id": "2025-278M",
        "meta_epoch": "2025-12-22T14:00:01.999872",
        "meta_mean_motion": 15.53196155,
        "meta_eccentricity": 0.00016581,
        "meta_inclination": 42.999,
        "meta_ra_of_asc_node": 192.6262,
        "meta_arg_of_pericenter": 255.2761,
        "meta_mean_anomaly": 131.1488,
        "meta_ephemeris_type": 0,
        "meta_classification_type": "U",
        "meta_norad_cat_id": 66802,
        "meta_element_set_no": 999,
        "meta_rev_at_epoch": 454,
        "meta_bstar": -0.030275986,
        "meta_mean_motion_dot": -0.0174008,
        "meta_mean_motion_ddot": 0,
        "tle_line1": "1 66802U 25278M   25356.58335648 -.01740080  00000+0 -30276-1 0  9999",
        "tle_line2": "2 66802  42.9990 192.6262 0001658 255.2761 131.1488 15.53196155  4543"
      },
      "geometry": {
        "type": "Point",
        "coordinates": [
          -58.64396911756525,
          41.00598473542435
        ]
      }
    },
    {
      "type": "Feature",
      "properties": {
        "norad_id": 66803,
        "name": "STARLINK-35565",
        "group": "last-30-days",
        "lat": 39.96187175141901,
        "lon": -53.795444331221866,
        "alt_km": 406.42423933785994,
        "timestamp": "2025-12-22T23:36:19.410990+00:00",
        "meta_object_name": "STARLINK-35565",
        "meta_object_id": "2025-278N",
        "meta_epoch": "2025-12-22T14:00:01.999872",
        "meta_mean_motion": 15.53193412,
        "meta_eccentricity": 0.00015969,
        "meta_inclination": 42.999,
        "meta_ra_of_asc_node": 192.6166,
        "meta_arg_of_pericenter": 254.8915,
        "meta_mean_anomaly": 135.3701,
        "meta_ephemeris_type": 0,
        "meta_classification_type": "U",
        "meta_norad_cat_id": 66803,
        "meta_element_set_no": 999,
        "meta_rev_at_epoch": 462,
        "meta_bstar": -0.030217133,
        "meta_mean_motion_dot": -0.01736873,
        "meta_mean_motion_ddot": 0,
        "tle_line1": "1 66803U 25278N   25356.58335648 -.01736873  00000+0 -30217-1 0  9990",
        "tle_line2": "2 66803  42.9990 192.6166 0001596 254.8915 135.3701 15.53193412  4620"
      },
      "geometry": {
        "type": "Point",
        "coordinates": [
          -53.795444331221866,
          39.96187175141901
        ]
      }
    },
    {
      "type": "Feature",
      "properties": {
        "norad_id": 66804,
        "name": "STARLINK-36038",
        "group": "last-30-days",
        "lat": 39.365938723352976,
        "lon": -51.432605828319666,
        "alt_km": 406.4299438602784,
        "timestamp": "2025-12-22T23:36:19.411000+00:00",
        "meta_object_name": "STARLINK-36038",
        "meta_object_id": "2025-278P",
        "meta_epoch": "2025-12-22T14:00:01.999872",
        "meta_mean_motion": 15.53190271,
        "meta_eccentricity": 0.00015627,
        "meta_inclination": 42.9989,
        "meta_ra_of_asc_node": 192.6121,
        "meta_arg_of_pericenter": 252.3503,
        "meta_mean_anomaly": 139.8279,
        "meta_ephemeris_type": 0,
        "meta_classification_type": "U",
        "meta_norad_cat_id": 66804,
        "meta_element_set_no": 999,
        "meta_rev_at_epoch": 454,
        "meta_bstar": -0.030114269,
        "meta_mean_motion_dot": -0.017314,
        "meta_mean_motion_ddot": 0,
        "tle_line1": "1 66804U 25278P   25356.58335648 -.01731400  00000+0 -30114-1 0  9998",
        "tle_line2": "2 66804  42.9989 192.6121 0001562 252.3503 139.8279 15.53190271  4549"
      },
      "geometry": {
        "type": "Point",
        "coordinates": [
          -51.432605828319666,
          39.365938723352976
        ]
      }
    },
    {
      "type": "Feature",
      "properties": {
        "norad_id": 66805,
        "name": "STARLINK-36049",
        "group": "last-30-days",
        "lat": 38.03266843658945,
        "lon": -46.82774311328519,
        "alt_km": 406.75201386718163,
        "timestamp": "2025-12-22T23:36:19.411030+00:00",
        "meta_object_name": "STARLINK-36049",
        "meta_object_id": "2025-278Q",
        "meta_epoch": "2025-12-22T14:00:01.999872",
        "meta_mean_motion": 15.53194495,
        "meta_eccentricity": 0.00017055,
        "meta_inclination": 42.999,
        "meta_ra_of_asc_node": 192.6014,
        "meta_arg_of_pericenter": 257.6501,
        "meta_mean_anomaly": 138.3618,
        "meta_ephemeris_type": 0,
        "meta_classification_type": "U",
        "meta_norad_cat_id": 66805,
        "meta_element_set_no": 999,
        "meta_rev_at_epoch": 454,
        "meta_bstar": -0.030219682,
        "meta_mean_motion_dot": -0.01737124,
        "meta_mean_motion_ddot": 0,
        "tle_line1": "1 66805U 25278Q   25356.58335648 -.01737124  00000+0 -30220-1 0  9996",
        "tle_line2": "2 66805  42.9990 192.6014 0001705 257.6501 138.3618 15.53194495  4541"
      },
      "geometry": {
        "type": "Point",
        "coordinates": [
          -46.82774311328519,
          38.03266843658945
        ]
      }
    },
    {
      "type": "Feature",
      "properties": {
        "norad_id": 66806,
        "name": "STARLINK-36069",
        "group": "last-30-days",
        "lat": 38.721104853702364,
        "lon": -49.1055725623391,
        "alt_km": 406.68199903759705,
        "timestamp": "2025-12-22T23:36:19.411046+00:00",
        "meta_object_name": "STARLINK-36069",
        "meta_object_id": "2025-278R",
        "meta_epoch": "2025-12-22T14:00:01.999872",
        "meta_mean_motion": 15.53193618,
        "meta_eccentricity": 0.00016574,
        "meta_inclination": 42.999,
        "meta_ra_of_asc_node": 192.6066,
        "meta_arg_of_pericenter": 260.751,
        "meta_mean_anomaly": 133.3438,
        "meta_ephemeris_type": 0,
        "meta_classification_type": "U",
        "meta_norad_cat_id": 66806,
        "meta_element_set_no": 999,
        "meta_rev_at_epoch": 433,
        "meta_bstar": -0.030184707,
        "meta_mean_motion_dot": -0.01735254,
        "meta_mean_motion_ddot": 0,
        "tle_line1": "1 66806U 25278R   25356.58335648 -.01735254  00000+0 -30185-1 0  9999",
        "tle_line2": "2 66806  42.9990 192.6066 0001657 260.7510 133.3438 15.53193618  4338"
      },
      "geometry": {
        "type": "Point",
        "coordinates": [
          -49.1055725623391,
          38.721104853702364
        ]
      }
    },
    {
      "type": "Feature",
      "properties": {
        "norad_id": 66807,
        "name": "STARLINK-36000",
        "group": "last-30-days",
        "lat": 36.52735078463848,
        "lon": -42.40125459580887,
        "alt_km": 406.79751955150095,
        "timestamp": "2025-12-22T23:36:19.411057+00:00",
        "meta_object_name": "STARLINK-36000",
        "meta_object_id": "2025-278S",
        "meta_epoch": "2025-12-22T14:00:01.999872",
        "meta_mean_motion": 15.53192828,
        "meta_eccentricity": 0.00015075,
        "meta_inclination": 42.9989,
        "meta_ra_of_asc_node": 192.5928,
        "meta_arg_of_pericenter": 255.8014,
        "meta_mean_anomaly": 144.043,
        "meta_ephemeris_type": 0,
        "meta_classification_type": "U",
        "meta_norad_cat_id": 66807,
        "meta_element_set_no": 999,
        "meta_rev_at_epoch": 460,
        "meta_bstar": -0.030185821,
        "meta_mean_motion_dot": -0.01735186,
        "meta_mean_motion_ddot": 0,
        "tle_line1": "1 66807U 25278S   25356.58335648 -.01735186  00000+0 -30186-1 0  9995",
        "tle_line2": "2 66807  42.9989 192.5928 0001507 255.8014 144.0430 15.53192828  4604"
      },
      "geometry": {
        "type": "Point",
        "coordinates": [
          -42.40125459580887,
          36.52735078463848
        ]
      }
    }
  ]
}